[{"OBJECT_NAME":"CSTP 1.2 (STC 1.2)","OBJECT_ID":"2023-091W","EPOCH":"2026-03-09T23:12:27.821952","MEAN_MOTION":15.2718076,"ECCENTRICITY":0.00204388,"INCLINATION":97.5258,"RA_OF_ASC_NODE":134.3262,"ARG_OF_PERICENTER":84.9592,"MEAN_ANOMALY":275.3979,"EPHEMERIS_TYPE":0,"CLASSIFICATION_TYPE":"U","NORAD_CAT_ID":57186,"ELEMENT_SET_NO":999,"REV_AT_EPOCH":14930,"BSTAR":0.00043035718,"MEAN_MOTION_DOT":0.00011466,"MEAN_MOTION_DDOT":0},{"OBJECT_NAME":"STARLINK-31642","OBJECT_ID":"2024-088U","EPOCH":"2026-03-09T11:06:32.364576","MEAN_MOTION":15.30187317,"ECCENTRICITY":0.0001211,"INCLINATION":53.1608,"RA_OF_ASC_NODE":141.2302,"ARG_OF_PERICENTER":92.3922,"MEAN_ANOMALY":267.7217,"EPHEMERIS_TYPE":0,"CLASSIFICATION_TYPE":"U","NORAD_CAT_ID":59726,"ELEMENT_SET_NO":999,"REV_AT_EPOCH":10364,"BSTAR":2.3217733e-5,"MEAN_MOTION_DOT":3.28e-6,"MEAN_MOTION_DDOT":0}]
